{"fetched_at":"2026-07-23T07:05:41.823Z","source":"https://celestrak.org/NORAD/elements/gp.php?NAME=GLOBAL&FORMAT=JSON","constellation":"blacksky-gen3","records":[{"OBJECT_NAME":"GLOBAL-31","OBJECT_ID":"2025-033B","EPOCH":"2026-07-22T22:12:19.609344","CLASSIFICATION_TYPE":"U","MEAN_MOTION":15.38435027,"ECCENTRICITY":0.00126709,"INCLINATION":58.997,"RA_OF_ASC_NODE":171.7478,"ARG_OF_PERICENTER":60.7485,"MEAN_ANOMALY":299.4856,"EPHEMERIS_TYPE":0,"NORAD_CAT_ID":63027,"ELEMENT_SET_NO":999,"REV_AT_EPOCH":7982,"BSTAR":0.0003709252,"MEAN_MOTION_DOT":0.0001392,"MEAN_MOTION_DDOT":0},{"OBJECT_NAME":"GLOBAL-32","OBJECT_ID":"2025-118B","EPOCH":"2026-07-21T16:33:48.014784","CLASSIFICATION_TYPE":"U","MEAN_MOTION":15.39398153,"ECCENTRICITY":0.00170724,"INCLINATION":58.9947,"RA_OF_ASC_NODE":352.9007,"ARG_OF_PERICENTER":65.0345,"MEAN_ANOMALY":295.2503,"EPHEMERIS_TYPE":0,"NORAD_CAT_ID":64231,"ELEMENT_SET_NO":999,"REV_AT_EPOCH":6355,"BSTAR":0.00028996928,"MEAN_MOTION_DOT":0.00011178,"MEAN_MOTION_DDOT":0},{"OBJECT_NAME":"GLOBAL-33","OBJECT_ID":"2025-267A","EPOCH":"2026-07-22T17:07:43.741344","CLASSIFICATION_TYPE":"U","MEAN_MOTION":15.37334757,"ECCENTRICITY":0.00086519,"INCLINATION":42.0178,"RA_OF_ASC_NODE":209.4902,"ARG_OF_PERICENTER":151.122,"MEAN_ANOMALY":209.01,"EPHEMERIS_TYPE":0,"NORAD_CAT_ID":66554,"ELEMENT_SET_NO":999,"REV_AT_EPOCH":3751,"BSTAR":0.00029330241,"MEAN_MOTION_DOT":0.00010734,"MEAN_MOTION_DDOT":0},{"OBJECT_NAME":"GLOBAL-34","OBJECT_ID":"2026-043A","EPOCH":"2026-07-22T19:06:00.963072","CLASSIFICATION_TYPE":"U","MEAN_MOTION":15.33225349,"ECCENTRICITY":0.00029954,"INCLINATION":42.0224,"RA_OF_ASC_NODE":14.7898,"ARG_OF_PERICENTER":203.9818,"MEAN_ANOMALY":156.0881,"EPHEMERIS_TYPE":0,"NORAD_CAT_ID":68098,"ELEMENT_SET_NO":999,"REV_AT_EPOCH":2129,"BSTAR":0.00038806536,"MEAN_MOTION_DOT":0.00012498,"MEAN_MOTION_DDOT":0}]}
