{"epoch":1784799577,"count":18318,"objects":[{"id":"63027","name":"GLOBAL-31","type":"PAYLOAD","l1":"1 63027U 25033B   26203.92522696  .00013920  00000-0  37093-3 0  9995","l2":"2 63027  58.9970 171.7478 0012671  60.7485 299.4856 15.38435027 79827"},{"id":"64231","name":"GLOBAL-32","type":"PAYLOAD","l1":"1 64231U 25118B   26202.69013906  .00011178  00000-0  28997-3 0  9995","l2":"2 64231  58.9947 352.9007 0017072  65.0345 295.2503 15.39398153 63558"},{"id":"66554","name":"GLOBAL-33","type":"PAYLOAD","l1":"1 66554U 25267A   26203.71370071  .00010734  00000-0  29330-3 0  9992","l2":"2 66554  42.0178 209.4902 0008652 151.1220 209.0100 15.37334757 37512"},{"id":"68098","name":"GLOBAL-34","type":"PAYLOAD","l1":"1 68098U 26043A   26203.79584448  .00012498  00000-0  38807-3 0  9991","l2":"2 68098  42.0224  14.7898 0002995 203.9818 156.0881 15.33225349 21290"}]}